[{"OBJECT_NAME":"STARLINK-4484","OBJECT_ID":"2022-097AF","EPOCH":"2026-03-09T08:33:08.454240","MEAN_MOTION":15.08837351,"ECCENTRICITY":0.00013191,"INCLINATION":53.2157,"RA_OF_ASC_NODE":115.6161,"ARG_OF_PERICENTER":93.7203,"MEAN_ANOMALY":266.394,"EPHEMERIS_TYPE":0,"CLASSIFICATION_TYPE":"U","NORAD_CAT_ID":53417,"ELEMENT_SET_NO":999,"REV_AT_EPOCH":19857,"BSTAR":0.00025219703,"MEAN_MOTION_DOT":3.728e-5,"MEAN_MOTION_DDOT":0},{"OBJECT_NAME":"CZ-4B DEB","OBJECT_ID":"2010-051H","EPOCH":"2026-03-08T15:03:50.230080","MEAN_MOTION":14.83710316,"ECCENTRICITY":0.01132064,"INCLINATION":97.7035,"RA_OF_ASC_NODE":129.0061,"ARG_OF_PERICENTER":211.6401,"MEAN_ANOMALY":147.7975,"EPHEMERIS_TYPE":0,"CLASSIFICATION_TYPE":"U","NORAD_CAT_ID":38326,"ELEMENT_SET_NO":999,"REV_AT_EPOCH":80705,"BSTAR":0.001509593,"MEAN_MOTION_DOT":0.00013943,"MEAN_MOTION_DDOT":0}]
